CUTE-1 (CO-55)          
1 27844U 03031E   25136.50856447  .00000334  00000+0  16472-3 0  9990
2 27844  98.6764 145.0925 0008383 255.5891 104.4358 14.23977493135216
CUBESAT XI-IV (CO-57)   
1 27848U 03031J   25136.93783929  .00000273  00000+0  13997-3 0  9996
2 27848  98.6792 145.5397 0008254 274.1704  85.8531 14.23314929135007
CUBESAT XI-V            
1 28895U 05043F   25136.84630880  .00001626  00000+0  27345-3 0  9996
2 28895  98.2468 280.9057 0014915  27.3219 332.8768 14.70936346 43452
CUTE-1.7+APD II (CO-65) 
1 32785U 08021C   25136.85863182  .00005455  00000+0  39695-3 0  9997
2 32785  97.7850 107.8527 0008230 297.8790  62.1601 15.04197699925517
AAUSAT-II               
1 32788U 08021F   25136.93989199  .01717336  22131-2  20625-2 0  9999
2 32788  97.5810 136.0527 0009219 177.9775 182.1547 16.08797316929688
CANX-2                  
1 32790U 08021H   25136.84713460  .00003963  00000+0  31045-3 0  9998
2 32790  97.8227 106.4126 0011384 292.0889  67.9126 15.01547766925259
SEEDS II (CO-66)        
1 32791U 08021J   25136.91402621  .00010780  00000+0  53118-3 0  9991
2 32791  97.7274 116.4405 0001812 223.7987 136.3103 15.18139209926903
SWISSCUBE               
1 35932U 09051B   25136.93914319  .00001158  00000+0  24465-3 0  9991
2 35932  98.4327  32.7293 0007367  16.0391 344.1041 14.61278365831266
BEESAT-1                
1 35933U 09051C   25136.69860340  .00000968  00000+0  20872-3 0  9995
2 35933  98.4257  32.8807 0006116  31.1579 328.9982 14.60700817831285
ITUPSAT1                
1 35935U 09051E   25136.69588303  .00000901  00000+0  20012-3 0  9996
2 35935  98.4353  32.4384 0008461  35.7294 324.4470 14.59501896830881
TISAT 1                 
1 36799U 10035E   25136.70411155  .00011960  00000+0  62474-3 0  9996
2 36799  98.0598  49.2823 0003829 147.8791 212.2674 15.16066064807354
AEROCUBE 4.5A           
1 38767U 12048K   25136.84508856  .00019762  00000+0  54201-3 0  9996
2 38767  64.6486 304.4464 0100591 281.0408  77.9422 15.32318754311185
STRAND-1                
1 39090U 13009E   25136.09281859  .00000306  00000+0  11791-3 0  9993
2 39090  98.3827 321.4325 0008317 346.2430  13.8529 14.36799715640034
BRITE-AUSTRIA           
1 39091U 13009F   25136.08975531  .00000183  00000+0  77284-4 0  9993
2 39091  98.3885 320.6865 0010008 353.0300   7.0745 14.36297652640040
NEE-01 PEGASO           
1 39151U 13018B   25136.89052783  .00003049  00000+0  31630-3 0  9992
2 39151  98.0703 265.2166 0013819  33.3308 326.8777 14.90693673651604
POPACS 1                
1 39268U 13055D   25136.91173828  .00071391  18915-6  66218-3 0  9995
2 39268  80.9704 116.0547 0253475  65.7207 297.0281 15.36134296610999
POPACS 2                
1 39269U 13055E   25136.71261780  .00016015  00000+0  31454-3 0  9994
2 39269  80.9953 232.3239 0479339  12.0854 349.1375 14.75188772604455
POPACS 3                
1 39270U 13055F   25135.88673417  .00013660  00000+0  34825-3 0  9995
2 39270  81.0040 297.0529 0586768 192.3308 166.2995 14.47208344601615
ZACUBE-1 (TSHEPISOSAT)  
1 39417U 13066B   25136.84998887  .00003777  00000+0  33143-3 0  9998
2 39417  97.7797  93.9969 0045634 129.5239 231.0030 14.96419258621366
WNISAT-1                
1 39423U 13066H   25136.90234753  .00000780  00000+0  15220-3 0  9994
2 39423  97.6766 310.6339 0166422  40.3608 320.9804 14.57069163609004
TRITON-1                
1 39427U 13066M   25136.85962203  .00003183  00000+0  40619-3 0  9990
2 39427  97.8380  51.2359 0096456  83.5146 277.7036 14.78903240615646
GOMX-1                  
1 39430U 13066Q   25136.82723284  .00001477  00000+0  23702-3 0  9993
2 39430  97.6861 356.9477 0131121 268.5238  90.0945 14.67550935611743
CUBEBUG-2 (LO-74)       
1 39440U 13066AA  25136.76780179  .00003146  00000+0  32307-3 0  9999
2 39440  97.8485  81.4980 0060486 258.4901 100.9520 14.89774796617896
NEE-02 KRYSAOR          
1 39441U 13066AB  25136.78860974  .00002312  00000+0  27171-3 0  9991
2 39441  97.8549  75.5025 0067510 288.5956  70.7934 14.84267331617352
FUNCUBE-1 (AO-73)       
1 39444U 13066AE  25136.83295561  .00007197  00000+0  54313-3 0  9998
2 39444  97.7828  98.6615 0043406 106.2347 254.3659 15.01974204620029
UWE-3                   
1 39446U 13066AG  25136.80813580  .00004017  00000+0  38448-3 0  9993
2 39446  97.8229  87.8703 0052784 196.0773 163.8773 14.92719052618366
BRITE-CA1 (TORONTO)     
1 40020U 14033L   25136.91055217  .00001291  00000+0  20519-3 0  9996
2 40020  97.9222 269.7443 0081563 105.2262 255.7981 14.71571404583912
DUCHIFAT-1              
1 40021U 14033M   25136.82013690  .00019993  00000+0  74264-3 0  9990
2 40021  98.0964 149.1123 0010177  52.0354 308.1801 15.27555228594697
NANOSATC-BR1            
1 40024U 14033Q   25136.94201808  .00012190  00000+0  60640-3 0  9991
2 40024  98.0906 133.2374 0006816 109.4059 250.7910 15.17768576593628
QB50P1                  
1 40025U 14033R   25136.62490510  .00008053  00000+0  49745-3 0  9993
2 40025  98.0828 117.8949 0011922 129.9403 230.2874 15.10110486593022
QB50P2                  
1 40032U 14033Y   25136.42670786  .00005910  00000+0  38803-3 0  9996
2 40032  98.0427 106.7753 0010730  83.6861 276.5588 15.08005128592730
PERSEUS-M2              
1 40037U 14033AD  25136.85586531  .00001925  00000+0  18762-3 0  9996
2 40037  97.9548  76.1261 0012538 165.5401 194.6179 14.93645881591586
PERSEUS-M1              
1 40039U 14033AF  25136.77479577  .00002067  00000+0  20111-3 0  9999
2 40039  97.9290  71.0779 0012333 164.5241 195.6357 14.93624186591421
POLYITAN-1              
1 40042U 14033AJ  25136.90566000  .00013139  00000+0  64871-3 0  9999
2 40042  98.1029 125.5343 0012233  83.5123 276.7501 15.17964811593195
TIGRISAT                
1 40043U 14033AK  25136.37749520  .00002014  00000+0  24997-3 0  9996
2 40043  97.7333 292.4418 0050150 295.8499  63.7548 14.82845141586776
AEROCUBE 6A             
1 40045U 14033AM  25136.92613153  .00005200  00000+0  50978-3 0  9999
2 40045  97.6912 305.7676 0042093 257.8149 101.8354 14.92006237587418
AEROCUBE 6B             
1 40046U 14033AN  25136.40320583  .00005651  00000+0  53811-3 0  9994
2 40046  97.6891 304.3489 0040703 252.7614 106.9149 14.93165608587427
CANX-4                  
1 40055U 14034C   25136.55206820  .00001067  00000+0  14798-3 0  9996
2 40055  98.3652 351.2859 0012497 199.1596 160.9146 14.80162855585831
CANX-5                  
1 40056U 14034D   25136.55468749  .00001069  00000+0  14819-3 0  9993
2 40056  98.3655 351.3094 0012495 199.3897 160.6840 14.80176319576648
UKUBE-1                 
1 40074U 14037F   25136.83484553  .00008757  00000+0  62060-3 0  9990
2 40074  98.3929  97.0767 0003317  72.3891 287.7695 15.05063483588771
BRITE-PL2 (HEWELIUSZ)   
1 40119U 14049B   25136.75337519  .00002049  00000+0  20519-3 0  9994
2 40119  97.8877 241.9421 0014079 348.7208  11.3694 14.92463782582273
AEROCUBE 5C             
1 40965U 15058B   25136.89116374  .00002213  00000+0  19866-3 0  9999
2 40965  64.7690  52.6432 0167919 207.9726 151.2286 14.88376753306619
AEROCUBE 7              
1 40966U 15058C   25136.80751865  .00003000  00000+0  24764-3 0  9999
2 40966  64.7650  42.4939 0159918 207.9077 151.3393 14.91580777306756
FOX-1A (AO-85)          
1 40967U 15058D   25136.26900000  .00002178  00000+0  20044-3 0  9999
2 40967  64.7763  69.6283 0164391 203.3191 156.0405 14.87878794 54450
SINOD-D 1               
1 40968U 15058E   25136.88226587  .00003151  00000+0  26342-3 0  9998
2 40968  64.7766  55.9711 0154269 202.1598 157.2801 14.91624261 57469
SNAP-3 ALICE            
1 40970U 15058G   25136.78617398  .00019491  00000+0  82317-3 0  9992
2 40970  64.7673 342.3693 0091176 202.5449 157.1661 15.19558686 56052
LMRST-SAT               
1 40971U 15058H   25136.40542236  .00002012  00000+0  18632-3 0  9990
2 40971  64.7764  64.9090 0166634 204.7182 154.5881 14.87637550 54473
SNAP-3 EDDIE            
1 40972U 15058J   25136.90669103  .00021994  00000+0  90388-3 0  9997
2 40972  64.7598 334.6102 0097060 204.4680 155.1826 15.19914280 58188
PROPCUBE 3              
1 40973U 15058K   25136.85191464  .00002707  00000+0  23036-3 0  9999
2 40973  64.7700  47.3962 0161367 206.3883 152.8947 14.90541808 55651
BISONSAT                
1 40974U 15058L   25136.75890741  .00008318  00000+0  49616-3 0  9999
2 40974  64.7647   4.4393 0125277 204.8645 154.6407 15.05340352 55731
SNAP-3 JIMI             
1 40975U 15058M   25136.80985428  .00004403  00000+0  32441-3 0  9992
2 40975  64.7679  28.3349 0146433 205.6180 153.7632 14.96459095 54792
PROPCUBE 1 (FLORA)      
1 40976U 15058N   25136.27612069  .00001953  00000+0  18789-3 0  9998
2 40976  64.7747  82.7187 0166150 206.4218 152.8352 14.86342223 57214
SINOD-D 3               
1 40977U 15058P   25136.91348055  .00002887  00000+0  25187-3 0  9998
2 40977  64.7733  69.5244 0156171 205.5838 153.7490 14.90020090 55634
HORYU-4                 
1 41340U 16012D   25136.70019594  .00021156  00000+0  58344-3 0  9995
2 41340  30.9972 292.4071 0006639 159.2189 200.8727 15.35851482509112
RAVAN                   
1 41849U 16067B   25136.51186529  .00013532  00000+0  47425-3 0  9998
2 41849  98.0462 343.5430 0008313 327.0880  32.9840 15.29575667466669
CELTEE 1                
1 41850U 16067C   25136.51571675  .00004822  00000+0  26707-3 0  9992
2 41850  98.1074 331.5339 0002252 120.9649 239.1802 15.14353100465742
OPTICUBE 04             
1 41851U 16067D   25136.45468566  .00002864  00000+0  19470-3 0  9993
2 41851  98.0934 323.0158 0016880  21.8548 338.3395 15.07123893465364
AEROCUBE 8D             
1 41852U 16067E   25136.52288719  .00006341  00000+0  32202-3 0  9994
2 41852  98.1111 332.5839 0005239  70.5756 289.6041 15.17284935465780
AEROCUBE 8C             
1 41853U 16067F   25136.46462936  .00006462  00000+0  32692-3 0  9990
2 41853  98.0954 330.3593 0005794   0.8036 359.3204 15.17405283465766
